{"type": "FeatureCollection", "features": [ {"type": "Feature", "properties": {"norad_id": 34963, "name": "COSMOS 2251 DEB", "group": "cosmos-2251-debris", "lat": -53.57430449936109, "lon": -135.95871601218724, "alt_km": 700.5200166060504, "timestamp": "2025-12-24T03:53:30.042831+00:00", "meta": {"OBJECT_NAME": "COSMOS 2251 DEB", "OBJECT_ID": "1993-036AES", "EPOCH": "2025-12-22T19:22:05.292480", "MEAN_MOTION": 14.51171721, "ECCENTRICITY": 0.00421225, "INCLINATION": 74.1708, "RA_OF_ASC_NODE": 23.9592, "ARG_OF_PERICENTER": 218.4859, "MEAN_ANOMALY": 141.3297, "EPHEMERIS_TYPE": 0, "CLASSIFICATION_TYPE": "U", "NORAD_CAT_ID": 34963, "ELEMENT_SET_NO": 999, "REV_AT_EPOCH": 86947, "BSTAR": 0.0011861563, "MEAN_MOTION_DOT": 4.738e-05, "MEAN_MOTION_DDOT": 0}, "tle": {"line1": "1 34963U 93036AES 25356.80700570  .00004738  00000+0  11862-2 0  9995", "line2": "2 34963  74.1708  23.9592 0042122 218.4859 141.3297 14.51171721869473"}}, "geometry": {"type": "Point", "coordinates": [-135.95871601218724, -53.57430449936109]}}, {"type": "Feature", "properties": {"norad_id": 34964, "name": "COSMOS 2251 DEB", "group": "cosmos-2251-debris", "lat": -17.48971504613084, "lon": -37.23464591614229, "alt_km": 1038.6374818586091, "timestamp": "2025-12-24T03:53:30.042841+00:00", "meta": {"OBJECT_NAME": "COSMOS 2251 DEB", "OBJECT_ID": "1993-036AET", "EPOCH": "2025-12-18T07:25:04.519776", "MEAN_MOTION": 14.00628567, "ECCENTRICITY": 0.02123167, "INCLINATION": 73.9712, "RA_OF_ASC_NODE": 338.1457, "ARG_OF_PERICENTER": 195.4091, "MEAN_ANOMALY": 164.0515, "EPHEMERIS_TYPE": 0, "CLASSIFICATION_TYPE": "U", "NORAD_CAT_ID": 34964, "ELEMENT_SET_NO": 999, "REV_AT_EPOCH": 84556, "BSTAR": 0.00089791859, "MEAN_MOTION_DOT": 1.6e-05, "MEAN_MOTION_DDOT": 0}, "tle": {"line1": "1 34964U 93036AET 25352.30908009  .00001600  00000+0  89792-3 0  9997", "line2": "2 34964  73.9712 338.1457 0212316 195.4091 164.0515 14.00628567845561"}}, "geometry": {"type": "Point", "coordinates": [-37.23464591614229, -17.48971504613084]}}, {"type": "Feature", "properties": {"norad_id": 34965, "name": "COSMOS 2251 DEB", "group": "cosmos-2251-debris", "lat": -44.29734300907684, "lon": -56.714069973016365, "alt_km": 717.4581559142707, "timestamp": "2025-12-24T03:53:30.042851+00:00", "meta": {"OBJECT_NAME": "COSMOS 2251 DEB", "OBJECT_ID": "1993-036AEU", "EPOCH": "2025-12-23T13:35:23.542080", "MEAN_MOTION": 14.48733014, "ECCENTRICITY": 0.0026424, "INCLINATION": 74.0518, "RA_OF_ASC_NODE": 108.1991, "ARG_OF_PERICENTER": 234.0681, "MEAN_ANOMALY": 125.8027, "EPHEMERIS_TYPE": 0, "CLASSIFICATION_TYPE": "U", "NORAD_CAT_ID": 34965, "ELEMENT_SET_NO": 999, "REV_AT_EPOCH": 87270, "BSTAR": 0.00031518, "MEAN_MOTION_DOT": 1.166e-05, "MEAN_MOTION_DDOT": 0}, "tle": {"line1": "1 34965U 93036AEU 25357.56624470  .00001166  00000+0  31518-3 0  9998", "line2": "2 34965  74.0518 108.1991 0026424 234.0681 125.8027 14.48733014872709"}}, "geometry": {"type": "Point", "coordinates": [-56.714069973016365, -44.29734300907684]}}, {"type": "Feature", "properties": {"norad_id": 34967, "name": "COSMOS 2251 DEB", "group": "cosmos-2251-debris", "lat": -42.15560301818581, "lon": -142.5056443018047, "alt_km": 736.9171540358457, "timestamp": "2025-12-24T03:53:30.042861+00:00", "meta": {"OBJECT_NAME": "COSMOS 2251 DEB", "OBJECT_ID": "1993-036AEW", "EPOCH": "2025-12-13T00:27:20.673792", "MEAN_MOTION": 14.44269018, "ECCENTRICITY": 0.00380101, "INCLINATION": 73.9933, "RA_OF_ASC_NODE": 253.3374, "ARG_OF_PERICENTER": 39.5345, "MEAN_ANOMALY": 320.8573, "EPHEMERIS_TYPE": 0, "CLASSIFICATION_TYPE": "U", "NORAD_CAT_ID": 34967, "ELEMENT_SET_NO": 999, "REV_AT_EPOCH": 64961, "BSTAR": 0.0011451852, "MEAN_MOTION_DOT": 3.946e-05, "MEAN_MOTION_DDOT": 0}, "tle": {"line1": "1 34967U 93036AEW 25347.01898928  .00003946  00000+0  11452-2 0  9992", "line2": "2 34967  73.9933 253.3374 0038010  39.5345 320.8573 14.44269018649616"}}, "geometry": {"type": "Point", "coordinates": [-142.5056443018047, -42.15560301818581]}}, {"type": "Feature", "properties": {"norad_id": 34968, "name": "COSMOS 2251 DEB", "group": "cosmos-2251-debris", "lat": 66.95212775420903, "lon": -92.42590795622331, "alt_km": 687.9973134296652, "timestamp": "2025-12-24T03:53:30.042871+00:00", "meta": {"OBJECT_NAME": "COSMOS 2251 DEB", "OBJECT_ID": "1993-036AEX", "EPOCH": "2025-12-23T01:14:18.762720", "MEAN_MOTION": 14.59422462, "ECCENTRICITY": 0.00871055, "INCLINATION": 74.0381, "RA_OF_ASC_NODE": 227.4133, "ARG_OF_PERICENTER": 345.2402, "MEAN_ANOMALY": 14.6221, "EPHEMERIS_TYPE": 0, "CLASSIFICATION_TYPE": "U", "NORAD_CAT_ID": 34968, "ELEMENT_SET_NO": 999, "REV_AT_EPOCH": 88628, "BSTAR": 0.00012972503, "MEAN_MOTION_DOT": 6.15e-06, "MEAN_MOTION_DDOT": 0}, "tle": {"line1": "1 34968U 93036AEX 25357.05160605  .00000615  00000+0  12973-3 0  9992", "line2": "2 34968  74.0381 227.4133 0087105 345.2402  14.6221 14.59422462886285"}}, "geometry": {"type": "Point", "coordinates": [-92.42590795622331, 66.95212775420903]}}, {"type": "Feature", "properties": {"norad_id": 34969, "name": "COSMOS 2251 DEB", "group": "cosmos-2251-debris", "lat": 49.80443891606428, "lon": 162.43895452475948, "alt_km": 727.0412927481339, "timestamp": "2025-12-24T03:53:30.042881+00:00", "meta": {"OBJECT_NAME": "COSMOS 2251 DEB", "OBJECT_ID": "1993-036AEY", "EPOCH": "2025-12-21T18:18:22.827744", "MEAN_MOTION": 14.32268431, "ECCENTRICITY": 0.00731947, "INCLINATION": 74.0139, "RA_OF_ASC_NODE": 6.6546, "ARG_OF_PERICENTER": 137.5862, "MEAN_ANOMALY": 223.0979, "EPHEMERIS_TYPE": 0, "CLASSIFICATION_TYPE": "U", "NORAD_CAT_ID": 34969, "ELEMENT_SET_NO": 999, "REV_AT_EPOCH": 65266, "BSTAR": 0.0001981389, "MEAN_MOTION_DOT": 5.25e-06, "MEAN_MOTION_DDOT": 0}, "tle": {"line1": "1 34969U 93036AEY 25355.76276421  .00000525  00000+0  19814-3 0  9994", "line2": "2 34969  74.0139   6.6546 0073194 137.5862 223.0979 14.32268431652661"}}, "geometry": {"type": "Point", "coordinates": [162.43895452475948, 49.80443891606428]}}, {"type": "Feature", "properties": {"norad_id": 34971, "name": "COSMOS 2251 DEB", "group": "cosmos-2251-debris", "lat": -20.205055382619793, "lon": -102.77840893909594, "alt_km": 753.304478469774, "timestamp": "2025-12-24T03:53:30.042891+00:00", "meta": {"OBJECT_NAME": "COSMOS 2251 DEB", "OBJECT_ID": "1993-036AFA", "EPOCH": "2025-12-18T11:38:13.277760", "MEAN_MOTION": 14.55642375, "ECCENTRICITY": 0.00693978, "INCLINATION": 73.9787, "RA_OF_ASC_NODE": 274.0839, "ARG_OF_PERICENTER": 138.3039, "MEAN_ANOMALY": 342.538, "EPHEMERIS_TYPE": 0, "CLASSIFICATION_TYPE": "U", "NORAD_CAT_ID": 34971, "ELEMENT_SET_NO": 999, "REV_AT_EPOCH": 66256, "BSTAR": 0.00012982435, "MEAN_MOTION_DOT": 5.55e-06, "MEAN_MOTION_DDOT": 0}, "tle": {"line1": "1 34971U 93036AFA 25352.48487590  .00000555  00000+0  12982-3 0  9996", "line2": "2 34971  73.9787 274.0839 0069397 138.3039 342.5380 14.55642375662563"}}, "geometry": {"type": "Point", "coordinates": [-102.77840893909594, -20.205055382619793]}}, {"type": "Feature", "properties": {"norad_id": 34972, "name": "COSMOS 2251 DEB", "group": "cosmos-2251-debris", "lat": -39.566559296552526, "lon": -138.73017736805363, "alt_km": 638.9933818100162, "timestamp": "2025-12-24T03:53:30.042928+00:00", "meta": {"OBJECT_NAME": "COSMOS 2251 DEB", "OBJECT_ID": "1993-036AFB", "EPOCH": "2025-12-21T13:38:31.765344", "MEAN_MOTION": 14.73012342, "ECCENTRICITY": 0.00329831, "INCLINATION": 73.9871, "RA_OF_ASC_NODE": 32.6088, "ARG_OF_PERICENTER": 189.946, "MEAN_ANOMALY": 322.6145, "EPHEMERIS_TYPE": 0, "CLASSIFICATION_TYPE": "U", "NORAD_CAT_ID": 34972, "ELEMENT_SET_NO": 999, "REV_AT_EPOCH": 87780, "BSTAR": 0.0011476529, "MEAN_MOTION_DOT": 7.412e-05, "MEAN_MOTION_DDOT": 0}, "tle": {"line1": "1 34972U 93036AFB 25355.56842321  .00007412  00000+0  11477-2 0  9992", "line2": "2 34972  73.9871  32.6088 0032983 189.9460 322.6145 14.73012342877801"}}, "geometry": {"type": "Point", "coordinates": [-138.73017736805363, -39.566559296552526]}}, {"type": "Feature", "properties": {"norad_id": 34976, "name": "COSMOS 2251 DEB", "group": "cosmos-2251-debris", "lat": 66.29326659966277, "lon": 63.28275174104382, "alt_km": 658.122578225727, "timestamp": "2025-12-24T03:53:30.042938+00:00", "meta": {"OBJECT_NAME": "COSMOS 2251 DEB", "OBJECT_ID": "1993-036AFF", "EPOCH": "2025-12-22T20:46:21.906912", "MEAN_MOTION": 14.7677373, "ECCENTRICITY": 0.00478521, "INCLINATION": 74.0584, "RA_OF_ASC_NODE": 286.4319, "ARG_OF_PERICENTER": 331.0215, "MEAN_ANOMALY": 85.833, "EPHEMERIS_TYPE": 0, "CLASSIFICATION_TYPE": "U", "NORAD_CAT_ID": 34976, "ELEMENT_SET_NO": 999, "REV_AT_EPOCH": 88423, "BSTAR": 0.001579307, "MEAN_MOTION_DOT": 0.00011269, "MEAN_MOTION_DDOT": 0}, "tle": {"line1": "1 34976U 93036AFF 25356.86553133  .00011269  00000+0  15793-2 0  9990", "line2": "2 34976  74.0584 286.4319 0047852 331.0215  85.8330 14.76773730884230"}}, "geometry": {"type": "Point", "coordinates": [63.28275174104382, 66.29326659966277]}}, {"type": "Feature", "properties": {"norad_id": 34979, "name": "COSMOS 2251 DEB", "group": "cosmos-2251-debris", "lat": -73.99570082640325, "lon": 150.99964576953016, "alt_km": 616.0875270557435, "timestamp": "2025-12-24T03:53:30.042949+00:00", "meta": {"OBJECT_NAME": "COSMOS 2251 DEB", "OBJECT_ID": "1993-036AFJ", "EPOCH": "2025-12-22T16:35:49.545024", "MEAN_MOTION": 14.7951388, "ECCENTRICITY": 0.00491991, "INCLINATION": 74.0391, "RA_OF_ASC_NODE": 247.682, "ARG_OF_PERICENTER": 323.5515, "MEAN_ANOMALY": 36.2314, "EPHEMERIS_TYPE": 0, "CLASSIFICATION_TYPE": "U", "NORAD_CAT_ID": 34979, "ELEMENT_SET_NO": 999, "REV_AT_EPOCH": 88367, "BSTAR": 0.0010881328, "MEAN_MOTION_DOT": 8.281e-05, "MEAN_MOTION_DDOT": 0}, "tle": {"line1": "1 34979U 93036AFJ 25356.69154566  .00008281  00000+0  10881-2 0  9994", "line2": "2 34979  74.0391 247.6820 0049199 323.5515  36.2314 14.79513880883670"}}, "geometry": {"type": "Point", "coordinates": [150.99964576953016, -73.99570082640325]}}]}